1 36201U 99025DUA 17260.39766462 +.00046400 +00000-0 +55559-3 0  9992
2 36201 099.3069 326.2029 0054208 118.1322 242.5421 15.59005807535701
1 36224U 99025DUZ 17260.81778671  .00000021  00000-0  34912-4 0  9999
2 36224  99.1029 262.9957 0116141 195.8600 163.8921 14.11565414432407
1 36225U 99025DVA 17260.38581493 +.00000873 +00000-0 +19872-3 0  9998
2 36225 098.8766 117.9216 0112116 201.9501 157.6872 14.55017876227574
1 36228U 99025DVD 17259.30457698  .00001854  00000-0  52984-3 0  9991
2 36228  99.2734 199.2186 0134683 353.3215   6.6172 14.41354113463945
1 36231U 99025DVG 17260.35227616 +.00000062 +00000-0 +57765-4 0  9990
2 36231 098.7621 305.1010 0060707 249.5620 109.9025 14.10766014432339
1 36237U 99025DVN 17260.36978319 +.00003165 +00000-0 +62856-3 0  9993
2 36237 098.9362 115.6841 0061973 014.1858 346.1063 14.61764524465771
1 36242U 99025DVT 17257.15539611 +.00000633 +00000-0 +42106-3 0  9993
2 36242 098.1392 224.7729 0072643 313.7591 045.7580 14.03145651145992
1 36243U 99025DVU 17259.62528783 +.00002064 +00000-0 +21829-3 0  9995
2 36243 099.2239 056.5702 0147613 267.0405 091.3904 14.83022115229731
1 36255U 99025DWG 17260.19480593  .00000396  00000-0  17752-3 0  9994
2 36255  99.4849 238.6446 0074798 125.8537 300.9314 14.27234414472167
1 36258U 99025DWK 17260.35509932  .00000315  00000-0  56912-4 0  9997
2 36258  99.0918 298.1678 0206970 356.0174   3.9368 14.62170606469868
1 36259U 99025DWL 17260.06587859  .00001263  00000-0  56503-3 0  9998
2 36259  98.8767 297.7248 0006048 134.0642 257.2114 14.24440737453650
1 36260U 99025DWM 17260.31046468  .00000070  00000-0  60503-4 0  9995
2 36260  98.8726 286.6614 0016287 183.8663 176.2387 14.13755354453993
1 36261U 99025DWN 17260.28681450  .00000175  00000-0  27430-3 0  9995
2 36261 101.4050  76.6340 0360920 186.4050 173.2391 13.42995151440263
1 36262U 99025DWP 17260.12202782  .00000129  00000-0  73793-4 0  9999
2 36262  98.8992  15.0666 0061960 302.6147  56.9060 14.24641692466310
1 36262U 99025DWP 17260.54342180 +.00000128 +00000-0 +73646-4 0  9998
2 36262 098.8994 015.4935 0061981 301.3725 058.1399 14.24641858466386
1 36263U 99025DWQ 17260.23295374  .00001023  00000-0  46949-3 0  9997
2 36263  98.9431   1.2821 0048441 337.6964  22.2106 14.22954398451605
1 36263U 99025DWQ 17260.51421557 +.00001010 +00000-0 +46365-3 0  9990
2 36263 098.9430 001.5677 0048437 336.8742 023.0255 14.22954867450318
1 36269U 99025DWW 17260.22400810  .00000404  00000-0  15983-3 0  9991
2 36269  99.1930  51.0938 0260799 201.8102 157.1805 14.18008434450887
1 36280U 99025DXH 17260.39717777 +.00000179 +00000-0 +14149-3 0  9997
2 36280 099.0415 304.3205 0068767 185.8920 244.6124 14.02733439441944
1 36281U 99025DXJ 17260.04350118  .00000571  00000-0  71644-3 0  9991
2 36281  99.2607 343.6581 0331200 153.6444 208.1970 13.47176946441746
1 36287U 10001A   17259.88678539 -.00000314 +00000-0 +00000-0 0  9995
2 36287 001.4764 005.7342 0003908 179.6890 269.8871 01.00270517028139
1 36287U 10001A   17260.21967668 -.00000314  00000-0  00000+0 0  9997
2 36287   1.4763   5.7373 0003914 180.1534  29.5856  1.00270302 28137
1 36287U 10001A   17260.48660459 -.00000315 +00000-0 +00000-0 0  9996
2 36287 001.4763 005.7428 0003909 180.2358 125.8533 01.00270212028139
1 36288U 10001B   17260.14688570 +.00000642 +00000-0 +53730-3 0  9997
2 36288 020.0831 280.9229 7112590 111.0791 334.0188 02.46938832066903
1 36289U 08053K   17260.16884303  .00000624  00000-0  62548-4 0  9994
2 36289  97.6678 241.5388 0012754 250.0462 109.9385 14.94755318470364
1 36291U 08056G   17260.32488521  .00000656  00000-0  39102-3 0  9994
2 36291  98.4021  93.1941 0177105 107.5054 254.5555 14.02757208451464
1 36301U 69009D   17260.61576483 +.00002149 +00000-0 +13207-2 0  9994
2 36301 088.4095 124.2889 1536821 010.9843 035.9500 11.67894613336060
1 36302U 75087C   17259.84540687 +.00000022 +00000-0 +45090-5 0  9994
2 36302 081.2445 299.9611 0107647 133.7581 350.4809 14.08946298440952
1 36302U 75087C   17260.62700076 +.00000018 +00000-0 +22831-5 0  9995
2 36302 081.2444 299.2016 0107685 131.5607 354.8757 14.08946285440989
1 36309U 80073M   17259.85598756 +.00001113 +00000-0 +47023-3 0  9991
2 36309 081.2174 295.4985 0035799 091.3912 269.1369 14.24658612458873
1 36319U 82025D   17257.94574677 +.00002490 +00000-0 +13621-2 0  9990
2 36319 082.5429 337.4637 0020760 083.7963 276.5577 14.11513593741923
1 36320U 82025E   17260.16450065 +.00000918 +00000-0 +47600-3 0  9992
2 36320 082.5127 329.9771 0009561 099.3238 260.9020 14.13860584742938
1 36321U 82025F   17260.23737071  .00000392  00000-0  21608-3 0  9992
2 36321  82.5350 355.2347 0024921 159.8208 200.3957 14.09118690701395
1 36321U 82025F   17260.59240829 +.00000388 +00000-0 +21400-3 0  9996
2 36321 082.5352 354.9406 0024928 158.8623 201.3587 14.09118806269305
1 36327U 82025M   17260.10682013  .00001263  00000-0  79941-3 0  9990
2 36327  82.5161  29.1170 0007906 243.9351 116.1006 14.03313784687959
1 36331U 82025R   17259.57136120 +.00000490 +00000-0 +27102-3 0  9990
2 36331 082.5346 348.6361 0008274 263.4942 096.5290 14.09656515705306
1 36337U 82025X   17260.07253154 +.00000053 +00000-0 +23473-4 0  9993
2 36337 082.5333 023.9022 0020131 216.8526 143.1263 14.04036189175361
1 36338U 82025Y   17259.93843363 +.00000523 +00000-0 +27816-3 0  9990
2 36338 082.5269 342.3022 0020332 127.7147 232.5876 14.11712152726870
1 36340U 82025AA  17259.80518503 +.00001117 +00000-0 +51636-3 0  9991
2 36340 082.5273 283.4964 0023823 297.4332 062.4426 14.20015023207381
1 36344U 82025AE  17259.70179120 +.00001607 +00000-0 +66288-3 0  9995
2 36344 082.5232 254.3274 0026950 128.3495 232.0116 14.26106798260158
1 36351U 82025AM  17260.03059689  .00000742  00000-0  43270-3 0  9993
2 36351  82.5506  14.7917 0009098 263.0305  96.9833 14.07331971534062
1 36355U 82025AR  17259.94151497  .00000718  00000-0  38634-3 0  9996
2 36355  82.5265 340.8293 0021296 130.0656 230.2392 14.11500784759207
1 36355U 82025AR  17259.94151497 +.00000718 +00000-0 +38634-3 0  9996
2 36355 082.5265 340.8293 0021296 130.0656 230.2392 14.11500784759027
1 36358U 10002A   17259.84225736 -.00000216 +00000-0 +00000-0 0  9999
2 36358 000.0309 248.0856 0002456 355.7344 140.3564 01.00269862018062
1 36358U 10002A   17260.58243814 -.00000217 +00000-0 +00000-0 0  9990
2 36358 000.0290 244.0943 0002354 356.4522 050.8250 01.00271316018072
1 36359U 10002B   17259.82896637 -.00000234 +00000-0 +00000-0 0  9992
2 36359 005.5108 059.4112 0215566 175.0274 167.5041 01.04042688028973
1 36359U 10002B   17260.35396597 -.00000211 +00000-0 +00000-0 0  9997
2 36359 005.5117 059.4072 0215598 175.0441 004.1360 01.04042371028989
1 36360U 10002C   17260.30316062 -.00000032  00000-0  64679-3 0  9999
2 36360  46.0607  66.6553 7070680  76.0562 348.0416  2.34894349 64976
1 36365U 06015J   17259.94869683 +.00001076 +00000-0 +12702-3 0  9991
2 36365 098.0023 250.0432 0023952 313.0670 046.8540 14.86679911411425
1 36365U 06015J   17260.55444155  .00001007  00000-0  11924-3 0  9992
2 36365  98.0023 250.6532 0023892 310.9720  48.9427 14.86680892411525
1 36368U 93036AYV 17260.27641321 +.00000867 +00000-0 +42654-3 0  9994
2 36368 074.1550 357.1309 0158559 323.2050 035.8289 14.12755568405363
1 36371U 93036AYY 17259.66947313 +.00000862 +00000-0 +27967-3 0  9994
2 36371 074.0260 027.1101 0022518 075.8692 284.4963 14.40296141279295
1 36372U 93036AYZ 17260.11658851  .00001854  00000-0  56853-3 0  9991
2 36372  74.0138  52.7364 0047578 111.2281 249.3967 14.41729640420532
1 36378U 93036AZF 17260.40569120  .00003269  00000-0  36639-3 0  9991
2 36378  74.0593  46.7306 0085648 173.9846 186.2384 14.84624953428150
1 36379U 93036AZG 17259.79151771 +.00000169 +00000-0 +71669-4 0  9990
2 36379 074.0134 053.2821 0048736 175.2606 247.9015 14.32172618217211
1 36379U 93036AZG 17260.08103275  .00000166  00000-0  70481-4 0  9998
2 36379  74.0134  52.7532 0048728 174.6632 300.5899 14.32172734440524
1 36381U 93036AZJ 17256.20933443  .00002128  00000-0  67870-3 0  9995
2 36381  74.0234  79.1325 0054837 134.8407 225.7223 14.39499672415315
1 36384U 93036AZM 17259.17310044 +.00001365 +00000-0 +35829-3 0  9994
2 36384 074.0321 335.2162 0016274 051.0458 309.2150 14.50087313432100
1 36390U 97051VU  17260.09910561  .00000615  00000-0  15285-3 0  9996
2 36390  86.3098 193.6849 0043674 225.9921 133.7681 14.49585710445928
1 36396U 10005B   17260.37912924 -.00000005 +00000-0 +00000-0 0  9992
2 36396 028.7862 264.1065 6386944 004.9559 021.7513 02.28845484063528
1 36397U 10006A   17260.18950747 -.00000317  00000-0  00000+0 0  9993
2 36397   0.0233 168.0514 0001411   5.7810 192.6018  1.00269817 27708
1 36397U 10006A   17260.48099728 -.00000317 +00000-0 +00000-0 0  9990
2 36397 000.0238 167.8822 0001399 005.5536 298.2226 01.00269633027845
1 36398U 10006B   17260.27935984 -.00000233 +00000-0 +00000-0 0  9998
2 36398 006.4535 063.8080 0474271 002.0672 178.9217 00.86944058024107
1 36399U 10006C   17259.88155176 -.00000110 +00000-0 +63568-3 0  9996
2 36399 045.9349 121.2056 7175152 047.3029 354.1752 02.26320293061571
1 36399U 10006C   17259.88155187 -.00000108 +00000-0 +64597-3 0  9998
2 36399 045.9352 121.2054 7175144 047.3032 354.1752 02.26320288061572
1 36400U 10007A   17259.96159731 +.00000005 +00000-0 +10000-3 0  9995
2 36400 065.4659 061.6366 0026256 357.1626 036.6434 02.13102276058732
1 36400U 10007A   17260.20135411  .00000003  00000-0  10000-3 0  9991
2 36400  65.4661  61.6285 0026248 357.1552 220.5830  2.13102268 58739
1 36400U 10007A   17260.39215144 +.00000001 +00000-0 +10000-3 0  9991
2 36400 065.4662 061.6221 0026249 357.1602 006.9504 02.13102265058749
1 36401U 10007B   17259.65060888 +.00000008 +00000-0 +10000-3 0  9999
2 36401 065.4594 061.6249 0008661 077.8287 348.0189 02.13102301058725
1 36401U 10007B   17260.18601542 +.00000003 +00000-0 +10000-3 0  9992
2 36401 065.4596 061.6065 0008644 077.9524 038.6393 02.13102296058732
